LEMUR-2-ALISIA          
1 62706U 25009DB  26203.95248909  .00008562  00000+0  63601-3 0  9995
2 62706  97.6959 285.8903 0005019 109.3462 250.8306 15.03257350105532
LEMUR-2-ROUNDTRIPPER    
1 62711U 25009DG  26204.15176953  .00007811  00000+0  56467-3 0  9991
2 62711  97.7239 286.7903 0004286  48.3858 311.7734 15.04318028 83039
LEMUR-2-MYNAMEISJEFF    
1 62712U 25009DH  26203.95074971  .00009024  00000+0  65169-3 0  9993
2 62712  97.7284 286.9921 0004279  81.9127 278.2584 15.04309970 83009
LEMUR-2-LEIA-PHILIP     
1 63246U 25052AN  26204.15555409  .00000929  00000+0  84898-4 0  9993
2 63246  97.6784  95.4948 0005108 103.2748 256.9044 14.97399507 74052
LEMUR-2-LIA-MARTIN      
1 63248U 25052AQ  26204.14664546  .00003487  00000+0  29966-3 0  9993
2 63248  97.6843  96.0188 0004639  70.2989 289.8734 14.98066177 74068
LEMUR-2-DELOITTE-1      
1 63259U 25052BB  26203.92797230  .00003870  00000+0  33410-3 0  9992
2 63259  97.6886  96.1336 0002516  54.3603 305.7853 14.97828481 74042
LEMUR-2-EMERSONROSE     
1 63261U 25052BD  26204.13458882  .00003496  00000+0  29085-3 0  9993
2 63261  97.6884  96.9686 0002204  40.2656 319.8730 14.99336545 74121
LEMUR-2-MARACHE-FRAN    
1 63262U 25052BE  26203.68506429  .00003943  00000+0  31877-3 0  9993
2 63262  97.6810  96.8982 0006115 223.0553 137.0193 15.00352389 74086
LEMUR-2-THEFALCONER     
1 63264U 25052BG  26204.16005586  .00003178  00000+0  27695-3 0  9990
2 63264  97.6806  95.9434 0001060 198.3787 161.7397 14.97592836 74079
LEMUR-2-UNTITLED-SC     
1 63351U 25061A   26203.92043416  .00003268  00000+0  18451-3 0  9994
2 63351  97.5660 179.0313 0019933 137.6189 222.6586 15.13683344 72993
LEMUR-2-ESPERANZA       
1 63352U 25061B   26203.89522782  .00003464  00000+0  19479-3 0  9998
2 63352  97.5667 179.1083 0019556 137.0188 223.2575 15.13788423 72999
LEMUR-2-KREMPEL-BRO2    
1 63353U 25061C   26204.24244001  .00003401  00000+0  18894-3 0  9995
2 63353  97.5714 180.0325 0020663 128.9573 231.3504 15.14219535 73066
LEMUR-2-THERMORAPTOR    
1 63354U 25061D   26203.89216254  .00003826  00000+0  21164-3 0  9990
2 63354  97.5719 179.7666 0020374 129.0530 231.2519 15.14300300 73010
LEMUR-2-NEUROSPICY      
1 63355U 25061E   26203.92714826  .00003469  00000+0  19179-3 0  9999
2 63355  97.5645 179.4000 0018216 131.8778 228.4012 15.14419013 73024
LEMUR-2-TILLINFINITY    
1 63356U 25061F   26203.88258508  .00004666  00000+0  25228-3 0  9997
2 63356  97.5632 179.6712 0019614 121.1672 239.1486 15.15007927 73045
LEMUR-2-KREMPEL-BRO1    
1 63357U 25061G   26203.72850690  .00003314  00000+0  18122-3 0  9995
2 63357  97.5632 179.4240 0020258 122.9596 237.3587 15.14808413 73017
LEMUR-2-LANGER2SPACE    
1 63358U 25061H   26203.89429564  .00003665  00000+0  20196-3 0  9999
2 63358  97.5638 179.3885 0018094 130.2936 229.9881 15.14503456 73027
LEMUR-2-BALTO           
1 63395U 25052BH  26204.13598507  .00004110  00000+0  33166-3 0  9999
2 63395  97.6918  97.3434 0004982 291.9458  68.1236 15.00411739 74153
LEMUR-2-KRISH           
1 64561U 25135AK  26204.25111866  .00004779  00000+0  42578-3 0  9997
2 64561  97.7759 318.8902 0001281 111.7125 248.4232 14.96495024 59316
LEMUR-2-HUBBLE-4        
1 64565U 25135AP  26204.11295278  .00001237  00000+0  12226-3 0  9999
2 64565  97.7722 317.6059 0003247 143.9745 216.1695 14.93700722 59236
LEMUR-2-SEJONG-2        
1 64586U 25135BL  26204.26965045  .00005859  00000+0  51446-3 0  9995
2 64586  97.7712 319.0542 0004453 182.2247 177.8956 14.96966207 59344
LEMUR-2-HUBBLE-5        
1 64840U 25135BT  26204.18596518  .00001427  00000+0  13842-3 0  9999
2 64840  97.7742 318.3557 0004968 203.9370 156.1620 14.94228388 59287
LEMUR-2-KARENDARRELL    
1 64841U 25135BU  26203.79849381  .00007940  00000+0  63228-3 0  9994
2 64841  97.7721 319.9655 0013015  81.7245 278.5453 15.00577316 59354
LEMUR-2-LUCILLE-ROSE    
1 65403U 25135BV  26203.77203599  .00007551  00000+0  60148-3 0  9998
2 65403  97.7688 319.9724 0015581 166.4570 193.7074 15.00558075 53970
LEMUR-2-AFFIE-WAUWIE    
1 66295U 25248C   26204.21280272  .00020771  00000+0  74289-3 0  9996
2 66295  45.3913 279.5994 0009333 293.1633  66.8272 15.28503726 40100
OTTER SDM               
1 66678U 25276N   26204.19417198  .00006055  00000+0  28315-3 0  9996
2 66678  97.4194 277.0787 0004866 218.2161 141.8730 15.20124446 35889
LEMUR-2-STAS-GORBUK     
1 66686U 25276W   26204.15187419  .00005495  00000+0  26035-3 0  9995
2 66686  97.4227 277.0873 0004249 212.6305 147.4668 15.19715909 35873
LEMUR-2-TEODOR          
1 66768U 25276DG  26204.16186856  .00005623  00000+0  25369-3 0  9993
2 66768  97.4134 277.3795 0002068  82.7522 277.3949 15.21398312 35919
LEMUR-2-LAILA           
1 66776U 25276DQ  26204.19624638  .00005556  00000+0  24907-3 0  9992
2 66776  97.4157 277.5570 0002757  82.7172 277.4378 15.21626275 35922
